CTC1_L_00561008-07
1 54659U 26537XK  26037.47809028  .00000000  00000+0  00000-0 0  9997
2 54659  98.0000  84.0000 0000000   0.0000 312.0000 14.70334339    14
CTC1_L_00561008-08
1 54660U 23242AL  26037.47809028  .00000000  00000+0  00000-0 0  9999
2 54660  98.0000  84.0000 0000000   0.0000 357.0000 14.70334339    15
CTC1_L_00561009-01
1 54661U 22403IB  26037.47809028  .00000000  00000+0  00000-0 0  9998
2 54661  98.0000  96.0000 0000000   0.0000  48.0000 14.70334339    16
CTC1_L_00561009-02
1 54662U 25720VI  26037.47809028  .00000000  00000+0  00000-0 0  9994
2 54662  98.0000  96.0000 0000000   0.0000  93.0000 14.70334339    17
CTC1_L_00561009-03
1 54663U 22262LJ  26037.47809028  .00000000  00000+0  00000-0 0  9993
2 54663  98.0000  96.0000 0000000   0.0000 138.0000 14.70334339    18
CTC1_L_00561009-04
1 54664U 23415OZ  26037.47809028  .00000000  00000+0  00000-0 0  9995
2 54664  98.0000  96.0000 0000000   0.0000 183.0000 14.70334339    19
CTC1_L_00561009-05
1 54665U 23507MK  26037.47809028  .00000000  00000+0  00000-0 0  9998
2 54665  98.0000  96.0000 0000000   0.0000 228.0000 14.70334339    10
CTC1_L_00561009-06
1 54666U 24976OI  26037.47809028  .00000000  00000+0  00000-0 0  9990
2 54666  98.0000  96.0000 0000000   0.0000 273.0000 14.70334339    11
CTC1_L_00561009-07
1 54667U 22433RA  26037.47809028  .00000000  00000+0  00000-0 0  9997
2 54667  98.0000  96.0000 0000000   0.0000 318.0000 14.70334339    12
CTC1_L_00561009-08
1 54668U 26526EQ  26037.47809028  .00000000  00000+0  00000-0 0  9995
2 54668  98.0000  96.0000 0000000   0.0000   3.0000 14.70334339    14
CTC1_L_00561010-01
1 54669U 24359WK  26037.47809028  .00000000  00000+0  00000-0 0  9998
2 54669  98.0000 108.0000 0000000   0.0000  54.0000 14.70334339    15
CTC1_L_00561010-02
1 54670U 24089ZY  26037.47809028  .00000000  00000+0  00000-0 0  9990
2 54670  98.0000 108.0000 0000000   0.0000  99.0000 14.70334339    16
CTC1_L_00561010-03
1 54671U 22044IY  26037.47809028  .00000000  00000+0  00000-0 0  9990
2 54671  98.0000 108.0000 0000000   0.0000 144.0000 14.70334339    18
CTC1_L_00561010-04
1 54672U 26225OC  26037.47809028  .00000000  00000+0  00000-0 0  9996
2 54672  98.0000 108.0000 0000000   0.0000 189.0000 14.70334339    18
CTC1_L_00561010-05
1 54673U 23818SY  26037.47809028  .00000000  00000+0  00000-0 0  9992
2 54673  98.0000 108.0000 0000000   0.0000 234.0000 14.70334339    10
CTC1_L_00561010-06
1 54674U 23682DS  26037.47809028  .00000000  00000+0  00000-0 0  9992
2 54674  98.0000 108.0000 0000000   0.0000 279.0000 14.70334339    10
CTC1_L_00561010-07
1 54675U 25116JW  26037.47809028  .00000000  00000+0  00000-0 0  9997
2 54675  98.0000 108.0000 0000000   0.0000 324.0000 14.70334339    12
CTC1_L_00561010-08
1 54676U 22402SU  26037.47809028  .00000000  00000+0  00000-0 0  9993
2 54676  98.0000 108.0000 0000000   0.0000   9.0000 14.70334339    13
CTC1_L_00561011-01
1 54677U 26020A   26037.47809028  .00000000  00000+0  00000-0 0  9994
2 54677  98.0000 120.0000 0000000   0.0000  60.0000 14.70334339    15
CTC1_L_00561011-02
1 54678U 26455PV  26037.47809028  .00000000  00000+0  00000-0 0  9997
2 54678  98.0000 120.0000 0000000   0.0000 105.0000 14.70334339    16
CTC1_L_00561011-03
1 54679U 22425HM  26037.47809028  .00000000  00000+0  00000-0 0  9991
2 54679  98.0000 120.0000 0000000   0.0000 150.0000 14.70334339    17
CTC1_L_00561011-04
1 54680U 26525PT  26037.47809028  .00000000  00000+0  00000-0 0  9998
2 54680  98.0000 120.0000 0000000   0.0000 195.0000 14.70334339    18
CTC1_L_00561011-05
1 54681U 22672YE  26037.47809028  .00000000  00000+0  00000-0 0  9998
2 54681  98.0000 120.0000 0000000   0.0000 240.0000 14.70334339    10
CTC1_L_00561011-06
1 54682U 22109PH  26037.47809028  .00000000  00000+0  00000-0 0  9994
2 54682  98.0000 120.0000 0000000   0.0000 285.0000 14.70334339    10
CTC1_L_00561011-07
1 54683U 24801FC  26037.47809028  .00000000  00000+0  00000-0 0  9996
2 54683  98.0000 120.0000 0000000   0.0000 330.0000 14.70334339    12
CTC1_L_00561011-08
1 54684U 24612JV  26037.47809028  .00000000  00000+0  00000-0 0  9997
2 54684  98.0000 120.0000 0000000   0.0000  15.0000 14.70334339    13
CTC1_L_00561012-01
1 54685U 26990YF  26037.47809028  .00000000  00000+0  00000-0 0  9999
2 54685  98.0000 132.0000 0000000   0.0000  66.0000 14.70334339    13
CTC1_L_00561012-02
1 54686U 22967KD  26037.47809028  .00000000  00000+0  00000-0 0  9990
2 54686  98.0000 132.0000 0000000   0.0000 111.0000 14.70334339    15
CTC1_L_00561012-03
1 54687U 23555EJ  26037.47809028  .00000000  00000+0  00000-0 0  9995
2 54687  98.0000 132.0000 0000000   0.0000 156.0000 14.70334339    15
CTC1_L_00561012-04
1 54688U 25669K   26037.47809028  .00000000  00000+0  00000-0 0  9994
2 54688  98.0000 132.0000 0000000   0.0000 201.0000 14.70334339    17
CTC1_L_00561012-05
1 54689U 23104SG  26037.47809028  .00000000  00000+0  00000-0 0  9997
2 54689  98.0000 132.0000 0000000   0.0000 246.0000 14.70334339    17
CTC1_L_00561012-06
1 54690U 23342QY  26037.47809028  .00000000  00000+0  00000-0 0  9993
2 54690  98.0000 132.0000 0000000   0.0000 291.0000 14.70334339    19
CTC1_L_00561012-07
1 54691U 24626FT  26037.47809028  .00000000  00000+0  00000-0 0  9990
2 54691  98.0000 132.0000 0000000   0.0000 336.0000 14.70334339    10
CTC1_L_00561012-08
1 54692U 23852JH  26037.47809028  .00000000  00000+0  00000-0 0  9991
2 54692  98.0000 132.0000 0000000   0.0000  21.0000 14.70334339    12
CTC1_L_00561013-01
1 54693U 24465WH  26037.47809028  .00000000  00000+0  00000-0 0  9993
2 54693  98.0000 144.0000 0000000   0.0000  72.0000 14.70334339    12
CTC1_L_00561013-02
1 54694U 26595TG  26037.47809028  .00000000  00000+0  00000-0 0  9990
2 54694  98.0000 144.0000 0000000   0.0000 117.0000 14.70334339    13
CTC1_L_00561013-03
1 54695U 22823UJ  26037.47809028  .00000000  00000+0  00000-0 0  9991
2 54695  98.0000 144.0000 0000000   0.0000 162.0000 14.70334339    14
CTC1_L_00561013-04
1 54696U 23079LE  26037.47809028  .00000000  00000+0  00000-0 0  9996
2 54696  98.0000 144.0000 0000000   0.0000 207.0000 14.70334339    15
CTC1_L_00561013-05
1 54697U 23733RQ  26037.47809028  .00000000  00000+0  00000-0 0  9994
2 54697  98.0000 144.0000 0000000   0.0000 252.0000 14.70334339    16
CTC1_L_00561013-06
1 54698U 25440LA  26037.47809028  .00000000  00000+0  00000-0 0  9992
2 54698  98.0000 144.0000 0000000   0.0000 297.0000 14.70334339    16
CTC1_L_00561013-07
1 54699U 22244HP  26037.47809028  .00000000  00000+0  00000-0 0  9992
2 54699  98.0000 144.0000 0000000   0.0000 342.0000 14.70334339    18
CTC1_L_00561013-08
1 54700U 23148BK  26037.47809028  .00000000  00000+0  00000-0 0  9999
2 54700  98.0000 144.0000 0000000   0.0000  27.0000 14.70334339    11
CTC1_L_00561014-01
1 54701U 23776MM  26037.47809028  .00000000  00000+0  00000-0 0  9997
2 54701  98.0000 156.0000 0000000   0.0000  78.0000 14.70334339    11
CTC1_L_00561014-02
1 54702U 25745CY  26037.47809028  .00000000  00000+0  00000-0 0  9996
2 54702  98.0000 156.0000 0000000   0.0000 123.0000 14.70334339    13
CTC1_L_00561014-03
1 54703U 26589SZ  26037.47809028  .00000000  00000+0  00000-0 0  9994
2 54703  98.0000 156.0000 0000000   0.0000 168.0000 14.70334339    13
CTC1_L_00561014-04
1 54704U 25752QA  26037.47809028  .00000000  00000+0  00000-0 0  9996
2 54704  98.0000 156.0000 0000000   0.0000 213.0000 14.70334339    15
CTC1_L_00561014-05
1 54705U 22916IF  26037.47809028  .00000000  00000+0  00000-0 0  9996
2 54705  98.0000 156.0000 0000000   0.0000 258.0000 14.70334339    15
CTC1_L_00561014-06
1 54706U 25311FG  26037.47809028  .00000000  00000+0  00000-0 0  9999
2 54706  98.0000 156.0000 0000000   0.0000 303.0000 14.70334339    17
CTC1_L_00561014-07
1 54707U 24906MF  26037.47809028  .00000000  00000+0  00000-0 0  9999
2 54707  98.0000 156.0000 0000000   0.0000 348.0000 14.70334339    17
CTC1_L_00561014-08
1 54708U 26285IJ  26037.47809028  .00000000  00000+0  00000-0 0  9992
2 54708  98.0000 156.0000 0000000   0.0000  33.0000 14.70334339    19
CTC1_L_00561015-01
1 54709U 23890PK  26037.47809028  .00000000  00000+0  00000-0 0  9992
2 54709  98.0000 168.0000 0000000   0.0000  84.0000 14.70334339    19
CTC1_L_00561015-02
1 54710U 25447Q   26037.47809028  .00000000  00000+0  00000-0 0  9994
2 54710  98.0000 168.0000 0000000   0.0000 129.0000 14.70334339    11
CTC1_L_00561015-03
1 54711U 26868SY  26037.47809028  .00000000  00000+0  00000-0 0  9993
2 54711  98.0000 168.0000 0000000   0.0000 174.0000 14.70334339    12
CTC1_L_00561015-04
1 54712U 23580BM  26037.47809028  .00000000  00000+0  00000-0 0  9992
2 54712  98.0000 168.0000 0000000   0.0000 219.0000 14.70334339    13
CTC1_L_00561015-05
1 54713U 22253SJ  26037.47809028  .00000000  00000+0  00000-0 0  9999
2 54713  98.0000 168.0000 0000000   0.0000 264.0000 14.70334339    14
CTC1_L_00561015-06
1 54714U 22400PB  26037.47809028  .00000000  00000+0  00000-0 0  9994
2 54714  98.0000 168.0000 0000000   0.0000 309.0000 14.70334339    15
CTC1_L_00561015-07
1 54715U 23262GH  26037.47809028  .00000000  00000+0  00000-0 0  9992
2 54715  98.0000 168.0000 0000000   0.0000 354.0000 14.70334339    16
CTC1_L_00561015-08
1 54716U 22049MT  26037.47809028  .00000000  00000+0  00000-0 0  9995
2 54716  98.0000 168.0000 0000000   0.0000  39.0000 14.70334339    17
CTC1_L_00561016-01
1 54717U 23606ZO  26037.47809028  .00000000  00000+0  00000-0 0  9996
2 54717  98.0000 180.0000 0000000   0.0000  90.0000 14.70334339    19
CTC1_L_00561016-02
1 54718U 23793DM  26037.47809028  .00000000  00000+0  00000-0 0  9994
2 54718  98.0000 180.0000 0000000   0.0000 135.0000 14.70334339    10
CTC1_L_00561016-03
1 54719U 24893LW  26037.47809028  .00000000  00000+0  00000-0 0  9997
2 54719  98.0000 180.0000 0000000   0.0000 180.0000 14.70334339    11
CTC1_L_00561016-04
1 54720U 22860ZX  26037.47809028  .00000000  00000+0  00000-0 0  9991
2 54720  98.0000 180.0000 0000000   0.0000 225.0000 14.70334339    13
